{
  "version": 0.6,
  "generator": "Overpass API 0.7.55.6 486819c8",
  "osm3s": {
    "timestamp_osm_base": "2019-04-24T22:42:02Z",
    "timestamp_areas_base": "2019-04-24T22:22:03Z",
    "copyright": "The data included in this document is from www.openstreetmap.org. The data is made available under ODbL."
  },
  "elements": [

{
  "type": "node",
  "id": 3369895390,
  "lat": 50.8072454,
  "lon": 4.9329197,
  "tags": {
    "amenity": "public_bookcase",
    "name": "Twiet-o-theek",
    "website": "http://www.opgewektienen.be/index.php/twiet-o-theek/"
  }
},
{
  "type": "node",
  "id": 3450919493,
  "lat": 50.8222164,
  "lon": 4.3449975,
  "tags": {
    "amenity": "public_bookcase"
  }
},
{
  "type": "node",
  "id": 3665814628,
  "lat": 51.0199400,
  "lon": 4.4598128,
  "tags": {
    "amenity": "public_bookcase",
    "name": "VrijBOEKpark",
    "operator": "Provincie Antwerpen",
    "public_bookcase:type": "sculpture"
  }
},
{
  "type": "node",
  "id": 4077844349,
  "lat": 50.8268764,
  "lon": 4.3489006,
  "tags": {
    "amenity": "public_bookcase",
    "capacity": "100"
  }
},
{
  "type": "node",
  "id": 4294823142,
  "lat": 50.5607743,
  "lon": 4.6923510,
  "tags": {
    "amenity": "public_bookcase",
    "name": "Boîte à livres d'autres mondes"
  }
},
{
  "type": "node",
  "id": 4435773176,
  "lat": 50.8433341,
  "lon": 4.4252821,
  "tags": {
    "amenity": "public_bookcase"
  }
},
{
  "type": "node",
  "id": 4435773177,
  "lat": 50.8780187,
  "lon": 4.3171442,
  "tags": {
    "amenity": "public_bookcase"
  }
},
{
  "type": "node",
  "id": 4437573408,
  "lat": 49.6784595,
  "lon": 5.8044876,
  "tags": {
    "amenity": "public_bookcase",
    "name": "Boite à Livre nº11"
  }
},
{
  "type": "node",
  "id": 4622440413,
  "lat": 50.4154162,
  "lon": 5.2997360,
  "tags": {
    "amenity": "public_bookcase"
  }
},
{
  "type": "node",
  "id": 4821800753,
  "lat": 51.0701680,
  "lon": 4.4505755,
  "tags": {
    "amenity": "public_bookcase",
    "opening_hours": "24/7",
    "public_bookcase:type": "reading_box"
  }
},
{
  "type": "node",
  "id": 4884717490,
  "lat": 51.0699230,
  "lon": 4.4584400,
  "tags": {
    "amenity": "public_bookcase",
    "opening_hours": "24/7",
    "public_bookcase:type": "reading_box"
  }
},
{
  "type": "node",
  "id": 4897477495,
  "lat": 50.8582874,
  "lon": 4.0679140,
  "tags": {
    "amenity": "public_bookcase"
  }
},
{
  "type": "node",
  "id": 4897481895,
  "lat": 50.8567675,
  "lon": 4.0741962,
  "tags": {
    "amenity": "public_bookcase"
  }
},
{
  "type": "node",
  "id": 4897545798,
  "lat": 50.8658948,
  "lon": 4.0890437,
  "tags": {
    "amenity": "public_bookcase"
  }
},
{
  "type": "node",
  "id": 4897545799,
  "lat": 50.8640013,
  "lon": 4.1061388,
  "tags": {
    "amenity": "public_bookcase",
    "public_bookcase:type": "reading_box"
  }
},
{
  "type": "node",
  "id": 4897545801,
  "lat": 50.8596753,
  "lon": 4.1139796,
  "tags": {
    "amenity": "public_bookcase"
  }
},
{
  "type": "node",
  "id": 4897550457,
  "lat": 50.8675944,
  "lon": 4.0780467,
  "tags": {
    "amenity": "public_bookcase"
  }
},
{
  "type": "node",
  "id": 4897550459,
  "lat": 50.8644690,
  "lon": 4.0800439,
  "tags": {
    "amenity": "public_bookcase"
  }
},
{
  "type": "node",
  "id": 4897660821,
  "lat": 50.8604330,
  "lon": 4.0871374,
  "tags": {
    "amenity": "public_bookcase"
  }
},
{
  "type": "node",
  "id": 4897660822,
  "lat": 50.8632734,
  "lon": 4.0918641,
  "tags": {
    "amenity": "public_bookcase"
  }
},
{
  "type": "node",
  "id": 4897664599,
  "lat": 50.8716916,
  "lon": 4.0810481,
  "tags": {
    "amenity": "public_bookcase"
  }
},
{
  "type": "node",
  "id": 4897666612,
  "lat": 50.8716311,
  "lon": 4.0974981,
  "tags": {
    "amenity": "public_bookcase"
  }
},
{
  "type": "node",
  "id": 4948669086,
  "lat": 51.2380381,
  "lon": 4.8242366,
  "tags": {
    "amenity": "public_bookcase",
    "opening_hours": "24/7",
    "operator": "De Bib",
    "public_bookcase:type": "reading_box"
  }
},
{
  "type": "node",
  "id": 4961374470,
  "lat": 51.0157245,
  "lon": 4.0961201,
  "tags": {
    "amenity": "public_bookcase"
  }
},
{
  "type": "node",
  "id": 4962546079,
  "lat": 51.0346897,
  "lon": 4.4215266,
  "tags": {
    "amenity": "public_bookcase",
    "opening_hours": "24/7",
    "public_bookcase:type": "reading_box"
  }
},
{
  "type": "node",
  "id": 5143506687,
  "lat": 51.0605491,
  "lon": 4.4720261,
  "tags": {
    "amenity": "public_bookcase",
    "opening_hours": "24/7",
    "public_bookcase:type": "reading_box"
  }
},
{
  "type": "node",
  "id": 5158500424,
  "lat": 51.0962528,
  "lon": 4.1391278,
  "tags": {
    "amenity": "public_bookcase",
    "name": "Leeskiosk"
  }
},
{
  "type": "node",
  "id": 5247769171,
  "lat": 51.0532925,
  "lon": 4.4128641,
  "tags": {
    "amenity": "public_bookcase",
    "public_bookcase:type": "reading_box"
  }
},
{
  "type": "node",
  "id": 5277461914,
  "lat": 51.2355393,
  "lon": 5.1215581,
  "tags": {
    "amenity": "public_bookcase",
    "brand": "LittleFreeLibrary",
    "opening_hours": "24/7",
    "public_bookcase:type": "reading_box"
  }
},
{
  "type": "node",
  "id": 5495859832,
  "lat": 50.6111336,
  "lon": 3.3907312,
  "tags": {
    "amenity": "public_bookcase"
  }
},
{
  "type": "node",
  "id": 5536410522,
  "lat": 51.1985248,
  "lon": 3.2037440,
  "tags": {
    "amenity": "public_bookcase",
    "brand": "Little Free Library",
    "capacity": "100",
    "description": "Dit boekenruilkastje op het pleintje in de Ontmijnerslaan is een initiatief van de wijkvereniging. Naast het boekenkastje werd een leesbank geplaatst zodat je er op een zonnige dag rustig in de boeken kan snuisteren.",
    "image": "https://littlefreelibrary.secure.force.com/servlet/servlet.FileDownload?file=00Pd000000ekd8PEAQ",
    "name": "Little Free Library Sanderkwartier",
    "opening_hours": "24/7",
    "operator": "Sanderskwartier",
    "public_bookcase:type": "reading_box",
    "ref": "40403",
    "start_date": "2016-09-04",
    "website": "http://sanderkwartier.brugsebuurten.be/OnsLittleFreeLibrary"
  }
},
{
  "type": "node",
  "id": 5557580435,
  "lat": 50.4729707,
  "lon": 5.6728520,
  "tags": {
    "amenity": "public_bookcase",
    "operator:phone": "+32 4 364 05 47"
  }
},
{
  "type": "node",
  "id": 5559964961,
  "lat": 50.4608793,
  "lon": 5.7198979,
  "tags": {
    "amenity": "public_bookcase",
    "capacity": "200",
    "name": "Boîte à Trésoirs",
    "opening_hours": "24/7",
    "public_bookcase:type": "wooden_shelter"
  }
},
{
  "type": "node",
  "id": 5562878497,
  "lat": 50.4689222,
  "lon": 5.7353679,
  "tags": {
    "amenity": "public_bookcase",
    "capacity": "25",
    "contact:phone": "+32 4 36 05 47",
    "name": "Boîte à livres"
  }
},
{
  "type": "node",
  "id": 5568693115,
  "lat": 51.2179199,
  "lon": 3.2154662,
  "tags": {
    "amenity": "public_bookcase",
    "capacity": "25",
    "description": "Deze boekenruilkast vindt je recht tegenover de Pim Pam Poem",
    "image": "https://upload.wikimedia.org/wikipedia/commons/3/32/Ruilboekenkast_Stubbekwartier.jpg",
    "name": "Stubbekwartier-buurtbibliotheek",
    "opening_hours": "24/7",
    "public_bookcase:type": "reading_box"
  }
},
{
  "type": "node",
  "id": 5581683328,
  "lat": 51.0580515,
  "lon": 4.4878483,
  "tags": {
    "amenity": "public_bookcase",
    "brand": "LittleFreeLibrary.org",
    "public_bookcase:type": "reading_box"
  }
},
{
  "type": "node",
  "id": 5667505626,
  "lat": 51.2003035,
  "lon": 3.2671270,
  "tags": {
    "amenity": "public_bookcase",
    "brand": "Little Free Library",
    "capacity": "150",
    "description": "Sinds 2014 vindt je een boekenruilkastje in Hoeve Hangerijn. Het kastje is te vinden in de stallen en werd gerealiseerd met de steun van de Brugse buurtcheques.",
    "image": "https://littlefreelibrary.secure.force.com/servlet/servlet.FileDownload?file=00Pd000000R03iTEAR",
    "name": "Little Free Library Hoeve Hangerijn",
    "opening_hours": "24/7",
    "operator": "Hoeve Hangerijn",
    "public_bookcase:type": "woorden_closet",
    "start_date": "2014"
  }
},
{
  "type": "node",
  "id": 5701045996,
  "lat": 51.0468716,
  "lon": 4.4218247,
  "tags": {
    "amenity": "public_bookcase",
    "opening_hours": "24/7",
    "public_bookcase:type": "reading_box"
  }
},
{
  "type": "node",
  "id": 5737207815,
  "lat": 51.0687390,
  "lon": 4.2830009,
  "tags": {
    "amenity": "public_bookcase"
  }
},
{
  "type": "node",
  "id": 5771741386,
  "lat": 50.4966266,
  "lon": 5.0948617,
  "tags": {
    "amenity": "public_bookcase"
  }
},
{
  "type": "node",
  "id": 5781580183,
  "lat": 49.6646450,
  "lon": 5.4966204,
  "tags": {
    "amenity": "public_bookcase"
  }
},
{
  "type": "node",
  "id": 5781580184,
  "lat": 49.6771794,
  "lon": 5.4747177,
  "tags": {
    "amenity": "public_bookcase"
  }
},
{
  "type": "node",
  "id": 5793894239,
  "lat": 50.5977978,
  "lon": 4.3241453,
  "tags": {
    "amenity": "public_bookcase"
  }
},
{
  "type": "node",
  "id": 5813512253,
  "lat": 50.6095987,
  "lon": 5.2716763,
  "tags": {
    "addr:city": "Chapon-Seraing",
    "addr:housenumber": "11",
    "addr:postcode": "4537",
    "addr:street": "Rue Guillaume Bolly",
    "amenity": "public_bookcase",
    "operator": "Comité Culturel de Verlaine",
    "website": "http://www.verlaine.be/fichiers-pdf/ccv/plan_boites_a-_livres.pdf"
  }
},
{
  "type": "node",
  "id": 5813512254,
  "lat": 50.6050146,
  "lon": 5.3217494,
  "tags": {
    "addr:city": "Verlaine",
    "addr:housenumber": "32",
    "addr:postcode": "4537",
    "addr:street": "Vinâve des Stréats",
    "amenity": "public_bookcase",
    "operator": "Comité Culturel de Verlaine",
    "website": "http://www.verlaine.be/fichiers-pdf/ccv/plan_boites_a-_livres.pdf"
  }
},
{
  "type": "node",
  "id": 5813512255,
  "lat": 50.6196414,
  "lon": 5.3013267,
  "tags": {
    "addr:city": "Verlaine",
    "addr:postcode": "4537",
    "addr:street": "Rue de Verlaine",
    "amenity": "public_bookcase",
    "operator": "Comité Culturel de Verlaine",
    "website": "http://www.verlaine.be/fichiers-pdf/ccv/plan_boites_a-_livres.pdf"
  }
},
{
  "type": "node",
  "id": 5813512256,
  "lat": 50.5888741,
  "lon": 5.3115287,
  "tags": {
    "addr:city": "Verlaine",
    "addr:postcode": "4537",
    "addr:street": "Rue Trixhelette",
    "amenity": "public_bookcase",
    "operator": "Comité Culturel de Verlaine",
    "website": "http://www.verlaine.be/fichiers-pdf/ccv/plan_boites_a-_livres.pdf"
  }
},
{
  "type": "node",
  "id": 5833021240,
  "lat": 50.4606255,
  "lon": 3.9997905,
  "tags": {
    "amenity": "public_bookcase",
    "name": "Boîte à Livres du Bois d'Havré",
    "public_bookcase:type": "wooden_cabinet"
  }
},
{
  "type": "node",
  "id": 5838312699,
  "lat": 50.6706320,
  "lon": 4.6161025,
  "tags": {
    "amenity": "public_bookcase",
    "name": "Bibliothèque participative de l'Esplanade"
  }
},
{
  "type": "node",
  "id": 5870255993,
  "lat": 51.0930897,
  "lon": 3.7114847,
  "tags": {
    "amenity": "public_bookcase",
    "capacity": "40"
  }
},
{
  "type": "node",
  "id": 5889147000,
  "lat": 50.6220823,
  "lon": 6.0403221,
  "tags": {
    "amenity": "public_bookcase"
  }
},
{
  "type": "node",
  "id": 5889147001,
  "lat": 50.6220404,
  "lon": 6.0402998,
  "tags": {
    "amenity": "public_bookcase"
  }
},
{
  "type": "node",
  "id": 5936819264,
  "lat": 50.6824066,
  "lon": 4.2680824,
  "tags": {
    "amenity": "public_bookcase"
  }
},
{
  "type": "node",
  "id": 5936819265,
  "lat": 50.6811403,
  "lon": 4.2642700,
  "tags": {
    "amenity": "public_bookcase"
  }
},
{
  "type": "node",
  "id": 5936821994,
  "lat": 50.6805796,
  "lon": 4.2981627,
  "tags": {
    "amenity": "public_bookcase"
  }
},
{
  "type": "node",
  "id": 5943621345,
  "lat": 49.5614040,
  "lon": 5.8307059,
  "tags": {
    "amenity": "public_bookcase"
  }
},
{
  "type": "node",
  "id": 5949660621,
  "lat": 50.6319961,
  "lon": 4.4496630,
  "tags": {
    "amenity": "public_bookcase"
  }
},
{
  "type": "node",
  "id": 6013446710,
  "lat": 50.8264617,
  "lon": 4.3384684,
  "tags": {
    "amenity": "public_bookcase",
    "name": "Book Box"
  }
},
{
  "type": "node",
  "id": 6058648355,
  "lat": 50.7316756,
  "lon": 4.4902695,
  "tags": {
    "amenity": "public_bookcase"
  }
},
{
  "type": "node",
  "id": 6066807890,
  "lat": 50.4502347,
  "lon": 3.9520294,
  "tags": {
    "amenity": "public_bookcase"
  }
},
{
  "type": "node",
  "id": 6116480535,
  "lat": 51.2123460,
  "lon": 3.2327525,
  "tags": {
    "amenity": "public_bookcase",
    "brand": "Little Free Library",
    "capacity": "40",
    "description": "In 2018 we started a facebook-like city district-wide community IT platform and someone suggested there to place a little free library. Another person offered to build it and a third person had connection to the city council .",
    "image": "https://upload.wikimedia.org/wikipedia/commons/thumb/0/00/Boekenruilkast_Sint-Anna.jpg/576px-Boekenruilkast_Sint-Anna.jpg",
    "name": "Little Free Library Sint-Anna",
    "opening_hours": "24/7",
    "public_bookcase:type": "reading_box",
    "ref": "81342",
    "start_date": "2018"
  }
},
{
  "type": "node",
  "id": 6141870455,
  "lat": 50.7429126,
  "lon": 4.2526048,
  "tags": {
    "amenity": "public_bookcase"
  }
},
{
  "type": "node",
  "id": 6141870456,
  "lat": 50.7435636,
  "lon": 4.2518229,
  "tags": {
    "amenity": "public_bookcase"
  }
},
{
  "type": "node",
  "id": 6141870457,
  "lat": 50.7519190,
  "lon": 4.2670417,
  "tags": {
    "amenity": "public_bookcase",
    "fixme": "verifieer exacte positie"
  }
},
{
  "type": "node",
  "id": 6142732610,
  "lat": 51.2426377,
  "lon": 2.9592857,
  "tags": {
    "amenity": "public_bookcase",
    "capacity": "80",
    "name": "Boekenruilkast 'Les Colombiers'"
  }
},
{
  "type": "node",
  "id": 6142736780,
  "lat": 51.2502529,
  "lon": 2.9792402,
  "tags": {
    "addr:city": "Bredene",
    "addr:housenumber": "87",
    "addr:postcode": "8450",
    "addr:street": "Koningin Astridlaan",
    "amenity": "public_bookcase",
    "capacity": "200",
    "description": "Holiday at last… time to immerge yourself in a good book!\n\nYou can borrow a wide range of books from our pop-up library, for free.\n\nShould you want to add a book of yours to our library, feel free to do so. Our guests will certainly appreciate new arrival",
    "name": "Pop-Up Bib Veld & Duin",
    "operator": "Veld & Duin",
    "website": "http://www.veldenduin.be/en/amenities/pop-up-library.html"
  }
},
{
  "type": "node",
  "id": 6153533949,
  "lat": 51.2163913,
  "lon": 3.2063610,
  "tags": {
    "amenity": "public_bookcase",
    "brand": "Little Free Library",
    "capacity": "70",
    "image": "https://upload.wikimedia.org/wikipedia/commons/thumb/7/7a/Boekenkast_Sint-Lodewijks.jpg/1024px-Boekenkast_Sint-Lodewijks.jpg",
    "mapillary": "wweALGY5g8_T8UjGkcWCfw",
    "name": "Little Free Library Sint-Lodewijks",
    "opening_hours": "24/7",
    "operator": "Sint-Lodewijkscollege",
    "public_bookcase:type": "reading_box",
    "ref": "48318",
    "wikimedia_commons": "File:Boekenkast Sint-Lodewijks.jpg"
  }
},
{
  "type": "node",
  "id": 6156051610,
  "lat": 51.2057076,
  "lon": 3.1962513,
  "tags": {
    "amenity": "public_bookcase",
    "brand": "Little Free Library",
    "capacity": "25",
    "description": "I came up with the idea of a Little Free Library in our street because I know many people here (especialy women) like to read. We recommend and lend books to each other. I also love the idea of sharing things with each other.",
    "description_1": "My husband made the library all by himself. He painted it yellow and green, the Brazilian Fifa World Cup colours :-). A lot of people from other streets pass by here while jogging or walking with their dog, we intend to reach them too.",
    "image": "https://3c62p93gfps217cemn2fgzd3-wpengine.netdna-ssl.com/wp-content/uploads/2014/11/Hertsvelde_4.jpg",
    "image_1": "https://littlefreelibrary.secure.force.com/servlet/servlet.FileDownload?file=00Pd000000IisiiEAB",
    "name": "Little Free Library Hertsvelde-West",
    "opening_hours": "24/7",
    "operator": "Manon Billiet",
    "public_bookcase:type": "reading_box",
    "ref": "13695",
    "start_date": "2014",
    "website": "https://booksinboxes.eu/13694-hertsvelde-west-9-8200-sint-andries/"
  }
},
{
  "type": "node",
  "id": 6156187094,
  "lat": 51.2037968,
  "lon": 3.1862056,
  "tags": {
    "amenity": "public_bookcase",
    "capacity": "50",
    "capacity:adult_books": "20",
    "capacity:children_books": "30",
    "description": "De kast bestaat uit 2 delen. In het ene deel vindt je boeken voor volwassenen, in het onderste deel vinden kinderen hun gading.",
    "image": "https://i1.wp.com/www.brugsalternatiefforum.be/wp-content/uploads/2018/12/boekenruilkastMoutstraat7.jpg",
    "name": "Boekenruilkast Moutstraat",
    "opening_hours": "24/7",
    "public_bookcase:type": "reading_box"
  }
},
{
  "type": "node",
  "id": 6156873339,
  "lat": 51.1842679,
  "lon": 3.1907591,
  "tags": {
    "amenity": "public_bookcase",
    "brand": "Little Free Library",
    "capacity": "40",
    "description": "De eigenaar van dit kastje vindt in deze drukke tijden zelfzorg erg belangrijk. Zelfzorg betekent voor haar in alle rust een boek lezen, zich helemaal inleven in het verhaal en even de realiteit vergeten.",
    "description_1": "Met deze little free library hoopt ze mensen te kunnen aanzetten om terug meer te lezen (en te ontspannen).",
    "image": "https://littlefreelibrary.secure.force.com/servlet/servlet.FileDownload?file=00P0W000011VJGjUAO",
    "name": "Minibib Sint-Michiels",
    "opening_hours": "24/7",
    "public_bookcase:type": "reading_box",
    "ref": "65231",
    "start_date": "2018-07-27"
  }
},
{
  "type": "node",
  "id": 6168664975,
  "lat": 51.1086124,
  "lon": 4.3862013,
  "tags": {
    "amenity": "public_bookcase",
    "capacity": "30",
    "name": "Minibib - Reet"
  }
},
{
  "type": "node",
  "id": 6174916640,
  "lat": 50.9294111,
  "lon": 3.0872801,
  "tags": {
    "amenity": "public_bookcase",
    "capacity": "15"
  }
},
{
  "type": "node",
  "id": 6174920532,
  "lat": 50.9519676,
  "lon": 3.1075949,
  "tags": {
    "amenity": "public_bookcase"
  }
},
{
  "type": "node",
  "id": 6208364473,
  "lat": 51.0482365,
  "lon": 3.2281015,
  "tags": {
    "amenity": "public_bookcase",
    "capacity": "20",
    "operator": "Bibliotheek Wingene",
    "website": "http://wingene.bibliotheek.be/portaal"
  }
},
{
  "type": "node",
  "id": 6221170102,
  "lat": 51.2185334,
  "lon": 3.2188596,
  "tags": {
    "amenity": "public_bookcase",
    "capacity": "35",
    "description": "In samenwerking met het OCMW dienstencentrum ’t Werftje werd tijdens de Kattefeesten het project “Little Free Library” officieel in gebruik genomen. Een wijkbibliotheekje waar iedereen van de buurt samen zorg voor draagt.",
    "image": "https://i2.wp.com/www.stubbekwartier.be/wp-content/uploads/2016/03/bibliotheekhuisje.jpg?zoom=2&resize=682%2C351",
    "name": "Boekenruilkastje Werfplein",
    "opening_hours": "24/7",
    "public_bookcase:type": "reading_box"
  }
},
{
  "type": "node",
  "id": 6223608165,
  "lat": 51.2302709,
  "lon": 3.2431685,
  "tags": {
    "amenity": "public_bookcase",
    "capacity": "30",
    "description": "Hallo, welkom bij de boekenruilkast (t.h.v Zagersweg 16). Ik wens jullie veel lees- en ruilgenot.\nHopelijk beleven jullie enig leesplezier aan deze kast.",
    "description_1": "Om dit plezier te bevorderen zien we volgende boeken liever niet in de kast verschijnen: encyclopedieën, woordenboeken, (teveel) kookboeken en te oude of versleten boeken. Ruil boeken voor wat je zelf zou meenemen.",
    "image": "https://upload.wikimedia.org/wikipedia/commons/4/45/Logo_Boekenruilkast_zagersweg.jpg",
    "image_1": "https://upload.wikimedia.org/wikipedia/commons/3/3b/Boekenruilkastje_De_Zagersweg.jpg",
    "name": "Ruilkast Zagersweg",
    "opening_hours": "24/7",
    "operator": "De Huisbewoner",
    "start_date": "2019-01-01",
    "website": "https://www.facebook.com/Boekenruilkast-Zagersweg-1152033248293786/"
  }
},
{
  "type": "node",
  "id": 6226133732,
  "lat": 51.0578726,
  "lon": 3.6868177,
  "tags": {
    "amenity": "public_bookcase",
    "brand": "Little Free Library",
    "brand:wikidata": "Q6650101",
    "ref": "26891",
    "wikimedia_commons": "File:Little Free Library Gent Bourgoyen.jpg"
  }
},
{
  "type": "node",
  "id": 6231085656,
  "lat": 51.1874599,
  "lon": 4.6486157,
  "tags": {
    "amenity": "public_bookcase",
    "opening_hours": "24/7",
    "public_bookcase:type": "wooden_cabinet",
    "source": "survey;mapillary"
  }
},
{
  "type": "node",
  "id": 6264754879,
  "lat": 51.1178550,
  "lon": 3.2919517,
  "tags": {
    "amenity": "public_bookcase",
    "image": "https://images1.persgroep.net/rcs/eh2y1Mp0uKhOePmjMS1Sf5cLWLA/diocontent/101070589/_crop/0/0/1620/1080/_fitwidth/763?appId=2dc96dd3f167e919913d808324cbfeb2&quality=0.8",
    "name": "Ruilbib",
    "operator": "Bulskampveld",
    "start_date": "2014-09-27"
  }
},
{
  "type": "node",
  "id": 6272057134,
  "lat": 51.1908646,
  "lon": 3.2439454,
  "tags": {
    "amenity": "public_bookcase",
    "capacity": "30",
    "image": "https://upload.wikimedia.org/wikipedia/commons/9/98/Boekenruilkast_in_Odegemstraat.jpg",
    "name": "Boekenruilkast",
    "opening_hours": "24/7",
    "operator": "De huisbewoner"
  }
},
{
  "type": "node",
  "id": 6277341776,
  "lat": 51.1845721,
  "lon": 3.2098215,
  "tags": {
    "amenity": "public_bookcase",
    "capacity": "40",
    "email": "monique.van.parys@gmail.com",
    "image": "https://i.imgur.com/Q3rNBbP.jpg",
    "name": "MoniqueBib",
    "opening_hours": "24/7",
    "operator": "Monique Van Parys",
    "public_bookcase:type": "wooden_box",
    "start_date": "2018-10"
  }
},
{
  "type": "node",
  "id": 6277384689,
  "lat": 51.1821803,
  "lon": 3.2223278,
  "tags": {
    "amenity": "public_bookcase",
    "capacity": "40",
    "image": "https://i.pinimg.com/564x/ee/46/88/ee4688e255bb96f7f7efe4f84192102e.jpg",
    "name": "Minibib",
    "opening_hours": "24/7",
    "public_bookcase:type": "reading_box"
  }
},
{
  "type": "node",
  "id": 6283063833,
  "lat": 51.0867836,
  "lon": 3.4874163,
  "tags": {
    "amenity": "public_bookcase",
    "image": "https://i.pinimg.com/564x/ba/ab/bd/baabbdab7b1354457c7a803c467c6632.jpg",
    "name": "Boekenruilkast",
    "public_bookcase:type": "reading_box"
  }
},
{
  "type": "node",
  "id": 6285018889,
  "lat": 50.6801499,
  "lon": 4.7099986,
  "tags": {
    "amenity": "public_bookcase",
    "image": "File:Boite à livres (Rue du Gros Médart - Chaumont-Gistoux).jpg",
    "name": "Boite à livres"
  }
},
{
  "type": "node",
  "id": 6285665341,
  "lat": 51.1353310,
  "lon": 5.4459103,
  "tags": {
    "amenity": "public_bookcase",
    "brand": "Little Free Library",
    "brand:wikidata": "Q6650101",
    "brand:wikipedia": "en:Little Free Library",
    "name": "Little Free Library"
  }
},
{
  "type": "node",
  "id": 6290839098,
  "lat": 51.0817285,
  "lon": 3.4389072,
  "tags": {
    "amenity": "public_bookcase",
    "image": "https://images0.persgroep.net/rcs/l0vnAOrO8IekGZpIwSVNAJ-60oE/diocontent/103579869/_crop/0/0/1580/1185/_fitwidth/763?appId=2dc96dd3f167e919913d808324cbfeb2&quality=0.8",
    "name": "Boekenasiel",
    "operator": "Bibliotheek Aalter",
    "public_bookcase:type": "wooden_cabinet"
  }
},
{
  "type": "node",
  "id": 6291105978,
  "lat": 49.5601489,
  "lon": 5.8376697,
  "tags": {
    "amenity": "public_bookcase"
  }
},
{
  "type": "node",
  "id": 6302084200,
  "lat": 51.1992404,
  "lon": 3.8097891,
  "tags": {
    "amenity": "public_bookcase",
    "brand": "Little Free Library"
  }
},
{
  "type": "node",
  "id": 6302084212,
  "lat": 51.1971308,
  "lon": 3.8156079,
  "tags": {
    "amenity": "public_bookcase",
    "brand": "Little Free Library"
  }
},
{
  "type": "node",
  "id": 6302084213,
  "lat": 51.1956706,
  "lon": 3.7908800,
  "tags": {
    "amenity": "public_bookcase",
    "brand": "Little Free Library"
  }
},
{
  "type": "node",
  "id": 6302084215,
  "lat": 51.1951517,
  "lon": 3.8260545,
  "tags": {
    "amenity": "public_bookcase",
    "brand": "Little Free Library",
    "name": "Christoffels boekenkastje"
  }
},
{
  "type": "node",
  "id": 6309001387,
  "lat": 50.6771656,
  "lon": 4.6390779,
  "tags": {
    "amenity": "public_bookcase",
    "fixme": "resurvey exact position",
    "name": "Boite à livres"
  }
},
{
  "type": "node",
  "id": 6309001611,
  "lat": 50.6953548,
  "lon": 4.6401950,
  "tags": {
    "amenity": "public_bookcase",
    "fixme": "resurvey exact position",
    "name": "Boite à livres"
  }
},
{
  "type": "node",
  "id": 6309001612,
  "lat": 50.6824984,
  "lon": 4.6971123,
  "tags": {
    "amenity": "public_bookcase",
    "name": "Boite à livres"
  }
},
{
  "type": "node",
  "id": 6312700669,
  "lat": 49.5708701,
  "lon": 5.8379097,
  "tags": {
    "amenity": "public_bookcase"
  }
},
{
  "type": "node",
  "id": 6320921238,
  "lat": 50.8575083,
  "lon": 4.6799934,
  "tags": {
    "amenity": "public_bookcase"
  }
},
{
  "type": "node",
  "id": 6323670327,
  "lat": 50.7333686,
  "lon": 4.2319879,
  "tags": {
    "amenity": "public_bookcase"
  }
},
{
  "type": "node",
  "id": 6333312360,
  "lat": 50.7930426,
  "lon": 3.1257577,
  "tags": {
    "amenity": "public_bookcase",
    "description": "bevind zich in de bibliotheek",
    "opening_hours": "Mo-Fr 09:00-19:00; Sa 09:00-12:00"
  }
},
{
  "type": "node",
  "id": 6333356542,
  "lat": 50.9721966,
  "lon": 3.1386292,
  "tags": {
    "amenity": "public_bookcase",
    "image": "https://i.pinimg.com/564x/bc/79/06/bc79061538f4940756c8605356456e4b.jpg",
    "name": "Mini bib",
    "public_bookcase:type": "wooden_cabinet"
  }
},
{
  "type": "node",
  "id": 6333366726,
  "lat": 50.9550564,
  "lon": 3.1362311,
  "tags": {
    "amenity": "public_bookcase",
    "image": "https://i.pinimg.com/564x/ad/e4/59/ade459aec23afe0b69210cdb7da75740.jpg",
    "name": "Boekenruilkast",
    "public_bookcase:type": "wooden_cabinet"
  }
},
{
  "type": "node",
  "id": 6335176497,
  "lat": 50.4637225,
  "lon": 5.7317636,
  "tags": {
    "amenity": "public_bookcase",
    "name": "Boîte à livres"
  }
},
{
  "type": "node",
  "id": 6356197283,
  "lat": 50.6775589,
  "lon": 4.3717184,
  "tags": {
    "amenity": "public_bookcase"
  }
},
{
  "type": "node",
  "id": 6356999270,
  "lat": 51.2046194,
  "lon": 3.1845657,
  "tags": {
    "amenity": "public_bookcase",
    "capacity": "15",
    "image": "https://upload.wikimedia.org/wikipedia/commons/0/0c/Boekenruilkast_Koude_Keuken.jpg",
    "lit": "no",
    "name": "Boekenruilkast Sint-Hubertus",
    "opening_hours": "24/7"
  }
},
{
  "type": "node",
  "id": 6357001212,
  "lat": 51.1998555,
  "lon": 3.1768209,
  "tags": {
    "amenity": "public_bookcase",
    "capacity": "40",
    "image": "https://upload.wikimedia.org/wikipedia/commons/a/a3/Boekenruilkast_Zandstraat.jpg",
    "lit": "no",
    "name": "Boekenruilkast Zandstraat"
  }
},
{
  "type": "node",
  "id": 6357728548,
  "lat": 51.2327229,
  "lon": 2.9227846,
  "tags": {
    "amenity": "public_bookcase",
    "capacity": "20",
    "image": "https://upload.wikimedia.org/wikipedia/commons/b/b6/Boekenruilkast.jpg"
  }
},
{
  "type": "node",
  "id": 6357993578,
  "lat": 51.2036087,
  "lon": 4.9794904,
  "tags": {
    "amenity": "public_bookcase"
  }
},
{
  "type": "node",
  "id": 6359988409,
  "lat": 50.8096907,
  "lon": 3.1840121,
  "tags": {
    "amenity": "public_bookcase",
    "check_date": "2019-03-24",
    "description": "https://www.mapillary.com/map/im/wR_UqJamtnw9xUvQ5E7n1A openstreetview",
    "image": "https://upload.wikimedia.org/wikipedia/commons/5/58/Boekenruilkastje_GBS_Loudesgrot_Wevelgem.jpg",
    "mapillary": "wR_UqJamtnw9xUvQ5E7n1A",
    "opening_hours": "24/7",
    "public_bookcase:type": "reading_box",
    "website": "https://www.wevelgem.be/ook-een-boekenruilkastje-jouw-buurt"
  }
},
{
  "type": "node",
  "id": 6360015567,
  "lat": 50.8179716,
  "lon": 3.1872569,
  "tags": {
    "amenity": "public_bookcase",
    "check_date": "2019-03-24",
    "description": "https://www.mapillary.com/map/im/BIuA9VpRvuXniQvqTZgMbw openstreetview",
    "image": "https://upload.wikimedia.org/wikipedia/commons/f/f1/Boekenruilkastje_Veldstraat_Wevelgem.jpg",
    "mapillary": "BIuA9VpRvuXniQvqTZgMbw",
    "opening_hours": "24/7"
  }
},
{
  "type": "node",
  "id": 6360027601,
  "lat": 50.8187668,
  "lon": 3.1673093,
  "tags": {
    "amenity": "public_bookcase",
    "check_date": "2019-03-24",
    "description": "https://www.mapillary.com/map/im/7U2CjHTs5TAYfmwyZ1fE3Q openstreetview",
    "image": "https://upload.wikimedia.org/wikipedia/commons/b/ba/Boekenruilkastje_Wallaysplein_Wevelgem.jpg",
    "mapillary": "7U2CjHTs5TAYfmwyZ1fE3Q",
    "opening_hours": "24/7",
    "website": "https://www.wevelgem.be/ook-een-boekenruilkastje-jouw-buurt"
  }
},
{
  "type": "node",
  "id": 6360047792,
  "lat": 50.8377686,
  "lon": 3.1559344,
  "tags": {
    "amenity": "public_bookcase",
    "check_date": "2019-03-24",
    "description": "https://www.mapillary.com/map/im/VD263fcG99nssWbOYng6JA openstreetview",
    "image": "https://upload.wikimedia.org/wikipedia/commons/0/01/Boekenruilkastje_Ter_Gracht_Wevelgem.jpg",
    "mapillary": "VD263fcG99nssWbOYng6JA",
    "opening_hours": "24/7",
    "public_bookcase:type": "reading_box",
    "website": "https://www.wevelgem.be/ook-een-boekenruilkastje-jouw-buurt"
  }
},
{
  "type": "node",
  "id": 6360057232,
  "lat": 50.8435219,
  "lon": 3.1605066,
  "tags": {
    "amenity": "public_bookcase",
    "check_date": "2019-03-24",
    "description": "https://www.mapillary.com/map/im/VD263fcG99nssWbOYng6JA openstreetview",
    "image": "https://upload.wikimedia.org/wikipedia/commons/4/47/Boekenruilkastje_Hofbos_Wevelgem.jpg",
    "mapillary": "VD263fcG99nssWbOYng6JA",
    "opening_hours": "24/7",
    "public_bookcase:type": "reading_box",
    "website": "https://www.wevelgem.be/ook-een-boekenruilkastje-jouw-buurt"
  }
},
{
  "type": "node",
  "id": 6360062023,
  "lat": 50.8506157,
  "lon": 3.1653533,
  "tags": {
    "amenity": "public_bookcase",
    "check_date": "2019-03-24",
    "description": "https://www.mapillary.com/map/im/cPb7pcvpPDh6hL4eF7BtdQ openstreetview",
    "image": "https://upload.wikimedia.org/wikipedia/commons/3/38/Boekenruilkastje_Meerlaanstraat_Wevelgem.jpg",
    "mapillary": "cPb7pcvpPDh6hL4eF7BtdQ",
    "opening_hours": "24/7",
    "public_bookcase:type": "reading_box",
    "website": "https://www.wevelgem.be/ook-een-boekenruilkastje-jouw-buurt"
  }
},
{
  "type": "node",
  "id": 6360069589,
  "lat": 50.8438683,
  "lon": 3.2045256,
  "tags": {
    "amenity": "public_bookcase",
    "check_date": "2019-03-24",
    "description": "https://www.mapillary.com/map/im/Ga2qbcJwV8gagjaJaYVnCQ openstreetview",
    "image": "https://upload.wikimedia.org/wikipedia/commons/0/08/Boekenruilkastje_Dorpsplein_Gullegem.jpg",
    "mapillary": "Ga2qbcJwV8gagjaJaYVnCQ",
    "opening_hours": "24/7",
    "public_bookcase:type": "reading_box",
    "website": "https://www.wevelgem.be/ook-een-boekenruilkastje-jouw-buurt"
  }
},
{
  "type": "node",
  "id": 6360075740,
  "lat": 50.8426971,
  "lon": 3.2043801,
  "tags": {
    "amenity": "public_bookcase",
    "check_date": "2019-03-24",
    "description": "https://www.mapillary.com/map/im/qD21YEVclYFUjz4BsvXGTg openstreetview",
    "image": "https://upload.wikimedia.org/wikipedia/commons/2/23/Boekenruilkastje_Koningin_Fabiolastraat_Gullegem.jpg",
    "mapillary": "qD21YEVclYFUjz4BsvXGTg",
    "opening_hours": "24/7",
    "public_bookcase:type": "reading_box",
    "website": "https://www.wevelgem.be/ook-een-boekenruilkastje-jouw-buurt"
  }
},
{
  "type": "node",
  "id": 6360129475,
  "lat": 50.8398262,
  "lon": 3.2037404,
  "tags": {
    "amenity": "public_bookcase",
    "check_date": "2019-03-24",
    "description": "https://www.mapillary.com/map/im/hiB721_86ZILbAcWUsdm0Q openstreetview",
    "image": "https://upload.wikimedia.org/wikipedia/commons/5/5c/Boekenruilkastje_Gulleheem_Gullegem.jpg",
    "mapillary": "hiB721_86ZILbAcWUsdm0Q",
    "opening_hours": "24/7",
    "public_bookcase:type": "reading_box",
    "website": "https://www.wevelgem.be/ook-een-boekenruilkastje-jouw-buurt"
  }
},
{
  "type": "node",
  "id": 6360226624,
  "lat": 50.8048796,
  "lon": 3.1773327,
  "tags": {
    "amenity": "public_bookcase",
    "check_date": "2019-03-25",
    "description": "https://www.mapillary.com/map/im/aC53EZc80mPHh8jQEfp98Q openstreetview",
    "image": "https://upload.wikimedia.org/wikipedia/commons/6/60/Boekenruilkastje_WZC_Elkerlyc_Wevelgem.jpg",
    "mapillary": "aC53EZc80mPHh8jQEfp98Q",
    "opening_hours": "24/7",
    "public_bookcase:type": "reading_box",
    "website": "https://www.wevelgem.be/ook-een-boekenruilkastje-jouw-buurt"
  }
},
{
  "type": "node",
  "id": 6360251298,
  "lat": 50.8072217,
  "lon": 3.1918790,
  "tags": {
    "amenity": "public_bookcase",
    "check_date": "2019-03-24",
    "description": "https://www.mapillary.com/map/im/ps3NPgFOniQpTwCs6DUayw openstreetview",
    "image": "https://upload.wikimedia.org/wikipedia/commons/4/4f/Boekenruilkastje_Kolverikstraat_Wevelgem.jpg",
    "mapillary": "ps3NPgFOniQpTwCs6DUayw",
    "opening_hours": "24/7",
    "website": "https://www.wevelgem.be/ook-een-boekenruilkastje-jouw-buurt"
  }
},
{
  "type": "node",
  "id": 6366335005,
  "lat": 50.9358727,
  "lon": 3.1524541,
  "tags": {
    "amenity": "public_bookcase",
    "image": "https://www.mapillary.com/map/im/3A90A_lJzDG6UzfY66ro7Q",
    "mapillary": "3A90A_lJzDG6UzfY66ro7Q",
    "name": "Boekenruilkastje",
    "opening_hours": "24/7",
    "public_bookcase:type": "wooden_cabinet"
  }
},
{
  "type": "node",
  "id": 6369869161,
  "lat": 51.1885677,
  "lon": 3.5851405,
  "tags": {
    "amenity": "public_bookcase",
    "image": "https://i.pinimg.com/564x/59/73/4a/59734afdd02391b3c743a40db6600241.jpg",
    "name": "Boekenruilkast",
    "opening_hours": "24/7",
    "public_bookcase:type": "wooden_cabinet"
  }
},
{
  "type": "node",
  "id": 6370991064,
  "lat": 51.2300460,
  "lon": 2.9118076,
  "tags": {
    "amenity": "public_bookcase",
    "check_date": "2019-03-29",
    "description": "in bloemenperk .",
    "description_1": "https://www.mapillary.com/map/im/VCNaIplHiwf_k3NR2zwPaQ openstreetview",
    "image": "https://upload.wikimedia.org/wikipedia/commons/a/a0/Boekenruilkastje_Koningstraat_Oostende.jpg",
    "mapillary": "VCNaIplHiwf_k3NR2zwPaQ",
    "opening_hours": "24/7",
    "public_bookcase:type": "reading_box"
  }
},
{
  "type": "node",
  "id": 6370992104,
  "lat": 51.2293190,
  "lon": 2.9143822,
  "tags": {
    "amenity": "public_bookcase",
    "check_date": "2019-03-29",
    "description_1": "https://www.mapillary.com/map/im/S9K8oufHATPRnnMTv2Z3Xg openstreetview",
    "image": "https://upload.wikimedia.org/wikipedia/commons/a/a0/Boekenruilkastje_Leopoldpark_Oostende.jpg",
    "mapillary": "S9K8oufHATPRnnMTv2Z3Xg",
    "opening_hours": "24/7",
    "public_bookcase:type": "reading_box"
  }
},
{
  "type": "node",
  "id": 6371013094,
  "lat": 51.2299942,
  "lon": 2.9156784,
  "tags": {
    "amenity": "public_bookcase",
    "check_date": "2019-03-29",
    "description": "achteraan gang richting toilet",
    "description_1": "https://www.mapillary.com/map/im/cSlsKxXRUgSLbfKg_61dlQ openstreetview",
    "image": "https://upload.wikimedia.org/wikipedia/commons/b/b9/Boekenruilkastje_De_Grote_Post_Oostende.jpg",
    "mapillary": "cSlsKxXRUgSLbfKg_61dlQ",
    "opening_hours": "Mo-Su 08:30-23:00",
    "public_bookcase:type": "reading_box"
  }
},
{
  "type": "node",
  "id": 6371028686,
  "lat": 51.2267143,
  "lon": 2.9054318,
  "tags": {
    "amenity": "public_bookcase",
    "check_date": "2019-03-29",
    "description": "https://www.mapillary.com/map/im/fK1BtDLCnks6ogjYrasxsw openstreetview",
    "image": "https://upload.wikimedia.org/wikipedia/commons/7/7c/Boekenruilkastje_Koninginnelaan_Oostende.jpg",
    "mapillary": "fK1BtDLCnks6ogjYrasxsw",
    "opening_hours": "24/7",
    "public_bookcase:type": "reading_box"
  }
},
{
  "type": "node",
  "id": 6371032938,
  "lat": 51.2235198,
  "lon": 2.9104073,
  "tags": {
    "amenity": "public_bookcase",
    "check_date": "2019-03-29",
    "description": "https://www.mapillary.com/map/im/2mw6WSoisy407ogSufEr6Q openstreetview",
    "image": "https://upload.wikimedia.org/wikipedia/commons/3/32/Boekenruilkastje_Koninginnelaan_-_Prinsen_Stafanieplein_Oostende.jpg",
    "mapillary": "2mw6WSoisy407ogSufEr6Q",
    "opening_hours": "24/7",
    "public_bookcase:type": "reading_box"
  }
},
{
  "type": "node",
  "id": 6371062347,
  "lat": 51.2249448,
  "lon": 2.9156375,
  "tags": {
    "amenity": "public_bookcase",
    "check_date": "2019-03-29",
    "description_1": "https://www.mapillary.com/map/im/8YvpSWB5kT-LGHMCTbtoBg openstreetview",
    "image": "https://upload.wikimedia.org/wikipedia/commons/9/92/Boekenruilkastje_Romestraat_36_Oostende.jpg",
    "mapillary": "8YvpSWB5kT-LGHMCTbtoBg",
    "public_bookcase:type": "reading_box"
  }
},
{
  "type": "node",
  "id": 6371082976,
  "lat": 51.2261873,
  "lon": 2.9175422,
  "tags": {
    "amenity": "public_bookcase",
    "check_date": "2019-03-29",
    "description": "tweede verdiep naast lok 208",
    "description_1": "https://www.mapillary.com/map/im/QYz7O3SiJForj8Vcf6Uxbw openstreetview",
    "image": "https://upload.wikimedia.org/wikipedia/commons/6/69/Boekenruilkastje_%281%29_Vindictivelaan_1_stadhuis_Oostende.jpg",
    "level": "2",
    "mapillary": "QYz7O3SiJForj8Vcf6Uxbw",
    "opening_hours": "Mo-We 08:00-17:00; Th 08:00-20:00; Fr 08:00-12:30",
    "public_bookcase:type": "reading_box"
  }
},
{
  "type": "node",
  "id": 6371082978,
  "lat": 51.2262913,
  "lon": 2.9180337,
  "tags": {
    "amenity": "public_bookcase",
    "check_date": "2019-03-29",
    "description": "Eerste verdiep bij lokaal communicatie",
    "description_1": "https://www.mapillary.com/map/im/rJO0msAm6W0z6AwLYaEgUQ openstreetview",
    "image": "https://upload.wikimedia.org/wikipedia/commons/5/54/Boekenruilkastje_Vindictivelaan_1_stadhuis_Oostende.jpg",
    "level": "1",
    "mapillary": "rJO0msAm6W0z6AwLYaEgUQ",
    "opening_hours": "Mo-We 08:00-17:00; Th 08:00-20:00; Fr 08:00-12:30",
    "public_bookcase:type": "reading_box"
  }
},
{
  "type": "node",
  "id": 6371103092,
  "lat": 51.2190321,
  "lon": 2.9101650,
  "tags": {
    "amenity": "public_bookcase",
    "check_date": "2019-03-29",
    "description": "https://www.mapillary.com/map/im/y71NeSOOowNILvu4Zgny4Q openstreetview",
    "image": "https://upload.wikimedia.org/wikipedia/commons/4/44/Boekenruilkastje_Leffingestraat_Oostende.jpg",
    "mapillary": "y71NeSOOowNILvu4Zgny4Q",
    "opening_hours": "24/7",
    "public_bookcase:type": "reading_box"
  }
},
{
  "type": "node",
  "id": 6371137350,
  "lat": 51.2175321,
  "lon": 2.9163576,
  "tags": {
    "amenity": "public_bookcase",
    "check_date": "2019-03-29",
    "description": "https://www.mapillary.com/map/im/VHqhLbPURH5Nu0gRDBrLow openstreetview",
    "image": "https://upload.wikimedia.org/wikipedia/commons/e/e3/Boekenruilkastje_Fr%C3%A8re-Orbanstraat_vogelzangpark_Oostende.jpg",
    "mapillary": "VHqhLbPURH5Nu0gRDBrLow",
    "opening_hours": "24/7",
    "public_bookcase:type": "reading_box"
  }
},
{
  "type": "node",
  "id": 6371144549,
  "lat": 51.2254797,
  "lon": 2.9242937,
  "tags": {
    "amenity": "public_bookcase",
    "check_date": "2019-03-29",
    "description": "https://www.mapillary.com/map/im/ffRtmNCSzfd0eQleNLDpSw openstreetview",
    "image": "https://upload.wikimedia.org/wikipedia/commons/d/db/Boekenruilkastje_Hazegras_Oostende.jpg",
    "mapillary": "ffRtmNCSzfd0eQleNLDpSw",
    "name": "Hazegras",
    "opening_hours": "24/7",
    "public_bookcase:type": "reading_box"
  }
},
{
  "type": "node",
  "id": 6371146435,
  "lat": 51.2149790,
  "lon": 2.9360528,
  "tags": {
    "amenity": "public_bookcase",
    "check_date": "2019-03-29",
    "description": "openingsuren dienstencentrum .",
    "description_1": "https://www.mapillary.com/map/im/OfDCO9wNMjhnUWkxneWFMA openstreetview",
    "image": "https://upload.wikimedia.org/wikipedia/commons/b/b8/Boekenruilkastje_Dienstencentrum_De_Schaperye_Oostende.jpg",
    "mapillary": "OfDCO9wNMjhnUWkxneWFMA",
    "public_bookcase:type": "shelf"
  }
},
{
  "type": "node",
  "id": 6378786228,
  "lat": 51.2123718,
  "lon": 2.8763621,
  "tags": {
    "amenity": "public_bookcase",
    "description": "https://www.mapillary.com/map/im/7KYE-d1ktqswYI4zDjK8Dw",
    "mapillary": "7KYE-d1ktqswYI4zDjK8Dw",
    "opening_hours": "24/7"
  }
},
{
  "type": "node",
  "id": 6378936603,
  "lat": 51.2126940,
  "lon": 2.8800648,
  "tags": {
    "amenity": "public_bookcase",
    "description": "https://www.mapillary.com/map/im/oMzU3iyVjS-sjOfLebg-6g openstreetview",
    "description_1": "onder afdak naar ingang",
    "mapillary": "oMzU3iyVjS-sjOfLebg-6g",
    "opening_hours": "24/7"
  }
},
{
  "type": "node",
  "id": 6378961171,
  "lat": 51.2092590,
  "lon": 2.8842182,
  "tags": {
    "amenity": "public_bookcase",
    "description": "https://www.mapillary.com/map/im/6FMG0k7EcVfYJhdiinUq6g openstreetview",
    "mapillary": "6FMG0k7EcVfYJhdiinUq6g",
    "opening_hours": "24/7"
  }
},
{
  "type": "node",
  "id": 6381935725,
  "lat": 51.0671938,
  "lon": 3.0815537,
  "tags": {
    "amenity": "public_bookcase",
    "description": "https://www.mapillary.com/map/im/LGPE6XTVPH38MIN0WwAX8w openstreetview",
    "mapillary": "LGPE6XTVPH38MIN0WwAX8w",
    "opening_hours": "24/7"
  }
},
{
  "type": "node",
  "id": 6386905025,
  "lat": 51.0637620,
  "lon": 3.0990853,
  "tags": {
    "amenity": "public_bookcase",
    "image": "https://i.pinimg.com/236x/cd/d3/c1/cdd3c19b67a5e0ae789caf0d86aa8bcd.jpg",
    "name": "Minibib",
    "opening_hours": "24/7",
    "public_bookcase:type": "reading_box",
    "website": "https://www.facebook.com/Minibib-Torhout-1079327445488450s"
  }
},
{
  "type": "node",
  "id": 6386911954,
  "lat": 51.0646197,
  "lon": 3.1025752,
  "tags": {
    "amenity": "public_bookcase",
    "image": "https://i.pinimg.com/564x/f0/99/30/f099305551e02704df4b81cffc8babb7.jpg",
    "name": "Minibib",
    "opening_hours": "Mo-Th 16:00-18:00; We 09:00-12:00,14:00-18:00; Fr,Sa 10:00-12:00,14:00-18:00",
    "public_bookcase:type": "reading_box",
    "website": "https://www.facebook.com/Minibib-Torhout-1079327445488450s"
  }
},
{
  "type": "node",
  "id": 6386916772,
  "lat": 51.0647708,
  "lon": 3.1055702,
  "tags": {
    "amenity": "public_bookcase",
    "image": "https://i.pinimg.com/564x/e1/f6/97/e1f6975421c45b699b67cade15782309.jpg",
    "name": "Minibib",
    "public_bookcase:type": "suitcase",
    "website": "https://www.facebook.com/Minibib-Torhout-1079327445488450s"
  }
},
{
  "type": "node",
  "id": 6387812532,
  "lat": 50.9333783,
  "lon": 3.1904548,
  "tags": {
    "amenity": "public_bookcase",
    "fixme": "positie te dubbelchecken"
  }
},
{
  "type": "node",
  "id": 6387885580,
  "lat": 50.7020542,
  "lon": 4.6487314,
  "tags": {
    "amenity": "public_bookcase",
    "image": "File:Boite à livres (Avenue du Grand Pré - Dion-le-Mont).jpg",
    "name": "Boite à livres"
  }
},
{
  "type": "node",
  "id": 6390569629,
  "lat": 50.8613214,
  "lon": 4.6595032,
  "tags": {
    "amenity": "public_bookcase"
  }
},
{
  "type": "node",
  "id": 6392369771,
  "lat": 51.0985095,
  "lon": 4.9481164,
  "tags": {
    "amenity": "public_bookcase",
    "operator": "Little Free Library",
    "public_bookcase:type": "reading_box"
  }
},
{
  "type": "node",
  "id": 6409315432,
  "lat": 51.1577786,
  "lon": 2.9668940,
  "tags": {
    "amenity": "public_bookcase",
    "description": "https://www.mapillary.com/map/im/g4sVd6V5FMYWM-UXuq5XjQ streetwiew",
    "mapillary": "g4sVd6V5FMYWM-UXuq5XjQ",
    "opening_hours": "24/7"
  }
},
{
  "type": "node",
  "id": 6411988882,
  "lat": 51.1543991,
  "lon": 2.9612996,
  "tags": {
    "amenity": "public_bookcase",
    "image": "https://i.pinimg.com/564x/a8/11/eb/a811eb187a3af5c51d9530a60f36cc90.jpg",
    "name": "Boekenruilkastje",
    "opening_hours": "24/7",
    "public_bookcase:type": "reading_box"
  }
},
{
  "type": "node",
  "id": 6416756432,
  "lat": 51.2079878,
  "lon": 3.2882667,
  "tags": {
    "amenity": "public_bookcase",
    "capacity": "20",
    "image": "https://upload.wikimedia.org/wikipedia/commons/f/fb/Minibieb_Pelderijnstraat.jpg",
    "name": "Minibieb",
    "opening_hours": "24/7"
  }
},
{
  "type": "node",
  "id": 6417074014,
  "lat": 51.2149122,
  "lon": 3.2740142,
  "tags": {
    "amenity": "public_bookcase",
    "capacity": "50",
    "image": "https://upload.wikimedia.org/wikipedia/commons/1/18/Ruilkast.jpg",
    "name": "Ruilkast",
    "opening_hours": "24/7",
    "operator": "Brugge Plus - Uitwijken"
  }
},
{
  "type": "node",
  "id": 6422583315,
  "lat": 51.1503749,
  "lon": 2.7201952,
  "tags": {
    "amenity": "public_bookcase",
    "image": "https://i.pinimg.com/564x/5d/bb/ab/5dbbabb5d7953d372b7e1c28d1f414ed.jpg",
    "name": "Zwerfbibliotheek"
  }
}

  ]
}
